H1 CPF  1  HTS 2022  9 25 12  7681 larets           NONE
H2  0304206 5557    27944 2022 09 25  0  0  0 2022 09 30  0  0  0   180 1 1  0 0 0
H5  0.0560 
H9 
10 0 59848  83880.00000  0     -90270.820    1295310.377   -6942826.035
10 0 59848  84060.00000  0     925460.656    2157990.921   -6660193.155
10 0 59848  84240.00000  0    1928938.400    2915990.859   -6134538.247
10 0 59848  84420.00000  0    2880616.807    3542550.393   -5384745.283
10 0 59848  84600.00000  0    3742087.431    4016608.858   -4437911.901
10 0 59848  84780.00000  0    4477645.301    4323552.499   -3328435.103
10 0 59848  84960.00000  0    5055805.898    4455706.730   -2096804.621
10 0 59848  85140.00000  0    5450695.126    4412540.212    -788134.724
10 0 59848  85320.00000  0    5643238.941    4200564.887     549513.300
10 0 59848  85500.00000  0    5622084.117    3832932.420    1866947.352
10 0 59848  85680.00000  0    5384200.911    3328741.617    3115719.367
10 0 59848  85860.00000  0    4935125.490    2712092.811    4249971.399
10 0 59848  86040.00000  0    4288830.405    2010942.574    5228160.724
10 0 59848  86220.00000  0    3467243.146    1255826.960    6014588.427
10 0 59849      0.00000  0    2499437.309     478519.020    6580680.665
10 0 59849    180.00000  0    1420548.087    -289313.886    6905973.500
10 0 59849    360.00000  0     270465.592   -1017392.885    6978801.125
10 0 59849    540.00000  0    -907655.346   -1678012.646    6796672.286
10 0 59849    720.00000  0   -2069012.042   -2247085.370    6366327.928
10 0 59849    900.00000  0   -3168841.037   -2705008.678    5703491.202
10 0 59849   1080.00000  0   -4164135.183   -3037339.404    4832327.061
10 0 59849   1260.00000  0   -5015338.439   -3235252.662    3784596.475
10 0 59849   1440.00000  0   -5687938.275   -3295761.238    2598528.491
10 0 59849   1620.00000  0   -6153896.133   -3221690.495    1317447.595
10 0 59849   1800.00000  0   -6392849.431   -3021408.224     -11811.786
10 0 59849   1980.00000  0   -6393016.296   -2708314.084   -1340641.811
10 0 59849   2160.00000  0   -6151753.961   -2300114.975   -2620476.395
10 0 59849   2340.00000  0   -5675735.050   -1817923.316   -3804599.486
10 0 59849   2520.00000  0   -4980743.355   -1285229.864   -4849865.086
10 0 59849   2700.00000  0   -4091104.873    -726803.638   -5718262.254
10 0 59849   2880.00000  0   -3038785.335    -167572.596   -6378267.083
10 0 59849   3060.00000  0   -1862202.975     368461.205   -6805937.088
10 0 59849   3240.00000  0    -604811.813     859224.058   -6985727.505
10 0 59849   3420.00000  0     686490.604    1285457.003   -6911018.421
10 0 59849   3600.00000  0    1963081.009    1631459.034   -6584353.618
10 0 59849   3780.00000  0    3176417.405    1885666.322   -6017384.992
10 0 59849   3960.00000  0    4279876.008    2041046.921   -5230505.477
10 0 59849   4140.00000  0    5230555.906    2095296.323   -4252180.618
10 0 59849   4320.00000  0    5990993.168    2050827.034   -3117979.601
10 0 59849   4500.00000  0    6530705.373    1914546.293   -1869321.685
10 0 59849   4680.00000  0    6827494.227    1697429.170    -551970.070
10 0 59849   4860.00000  0    6868426.803    1413900.921     785677.554
10 0 59849   5040.00000  0    6650432.047    1081058.549    2094423.836
10 0 59849   5220.00000  0    6180483.608     717773.552    3326147.303
10 0 59849   5400.00000  0    5475349.715     343721.632    4435633.497
10 0 59849   5580.00000  0    4560928.694     -21603.125    5382268.885
10 0 59849   5760.00000  0    3471217.902    -359837.830    6131529.858
10 0 59849   5940.00000  0    2246970.275    -654617.825    6656211.804
10 0 59849   6120.00000  0     934115.179    -892320.306    6937366.768
10 0 59849   6300.00000  0    -417995.831   -1062660.332    6964937.178
10 0 59849   6480.00000  0   -1758451.573   -1159116.581    6738070.929
10 0 59849   6660.00000  0   -3036684.669   -1179173.259    6265124.270
10 0 59849   6840.00000  0   -4204361.704   -1124370.741    5563364.361
10 0 59849   7020.00000  0   -5217213.742   -1000169.367    4658373.183
10 0 59849   7200.00000  0   -6036738.458    -815630.321    3583150.014
10 0 59849   7380.00000  0   -6631700.038    -582923.115    2376936.902
10 0 59849   7560.00000  0   -6979368.973    -316681.102    1083805.110
10 0 59849   7740.00000  0   -7066441.134     -33234.326    -248963.237
10 0 59849   7920.00000  0   -6889575.940     250242.461   -1572633.071
10 0 59849   8100.00000  0   -6455524.827     516623.841   -2838833.240
10 0 59849   8280.00000  0   -5780850.731     749721.996   -4001353.497
10 0 59849   8460.00000  0   -4891246.335     935125.762   -5017848.894
10 0 59849   8640.00000  0   -3820493.408    1060946.077   -5851369.768
10 0 59849   8820.00000  0   -2609126.959    1118431.834   -6471666.819
10 0 59849   9000.00000  0   -1302870.457    1102429.997   -6856237.214
10 0 59849   9180.00000  0      49094.122    1011676.779   -6991090.511
10 0 59849   9360.00000  0    1395954.990     848908.011   -6871224.085
10 0 59849   9540.00000  0    2687149.468     620785.328   -6500813.969
10 0 59849   9720.00000  0    3874245.140     337637.911   -5893100.407
10 0 59849   9900.00000  0    4912756.378      13026.207   -5069966.285
10 0 59849  10080.00000  0    5763841.123    -336859.760   -4061216.293
10 0 59849  10260.00000  0    6395817.354    -693947.293   -2903555.622
10 0 59849  10440.00000  0    6785424.937   -1039145.304   -1639288.560
10 0 59849  10620.00000  0    6918768.641   -1353286.229    -314771.840
10 0 59849  10800.00000  0    6791881.428   -1618096.844    1021320.262
10 0 59849  10980.00000  0    6410870.998   -1817147.760    2319844.520
10 0 59849  11160.00000  0    5791634.116   -1936728.947    3533065.462
10 0 59849  11340.00000  0    4959152.295   -1966600.702    4616467.577
10 0 59849  11520.00000  0    3946415.712   -1900582.381    5530415.297
10 0 59849  11700.00000  0    2793043.044   -1736949.828    6241600.013
10 0 59849  11880.00000  0    1543664.362   -1478628.123    6724221.451
10 0 59849  12060.00000  0     246150.334   -1133174.484    6960872.069
10 0 59849  12240.00000  0   -1050241.055    -712552.566    6943111.479
10 0 59849  12420.00000  0   -2296728.724    -232709.354    6671726.052
10 0 59849  12600.00000  0   -3446826.568     287030.534    6156681.717
10 0 59849  12780.00000  0   -4458066.498     824734.275    5416773.728
10 0 59849  12960.00000  0   -5293575.341    1356768.056    4478973.437
10 0 59849  13140.00000  0   -5923447.165    1858811.929    3377480.892
10 0 59849  13320.00000  0   -6325852.822    2306941.768    2152505.639
10 0 59849  13500.00000  0   -6487840.858    2678730.854     848812.494
10 0 59849  13680.00000  0   -6405787.803    2954319.582    -485925.636
10 0 59849  13860.00000  0   -6085464.892    3117395.586   -1802901.132
10 0 59849  14040.00000  0   -5541718.050    3156033.523   -3053993.296
10 0 59849  14220.00000  0   -4797773.481    3063350.426   -4193559.052
10 0 59849  14400.00000  0   -3884209.865    2837942.073   -5180107.681
10 0 59849  14580.00000  0   -2837659.406    2484083.611   -5977791.637
10 0 59849  14760.00000  0   -1699309.870    2011691.747   -6557666.738
10 0 59849  14940.00000  0    -513270.576    1436051.785   -6898692.619
10 0 59849  15120.00000  0     675127.621     777322.244   -6988446.907
10 0 59849  15300.00000  0    1821038.815      59838.082   -6823553.627
10 0 59849  15480.00000  0    2881773.367    -688771.878   -6409817.117
10 0 59849  15660.00000  0    3818377.608   -1438628.095   -5762050.607
10 0 59849  15840.00000  0    4597074.684   -2158771.942   -4903603.354
10 0 59849  16020.00000  0    5190522.078   -2818434.864   -3865586.732
10 0 59849  16200.00000  0    5578831.020   -3388355.121   -2685801.129
10 0 59849  16380.00000  0    5750300.441   -3842081.892   -1407387.532
10 0 59849  16560.00000  0    5701820.219   -4157203.692     -77242.711
10 0 59849  16740.00000  0    5438914.596   -4316436.484    1255740.917
10 0 59849  16920.00000  0    4975413.626   -4308509.187    2542536.728
10 0 59849  17100.00000  0    4332764.831   -4128789.554    3735855.276
10 0 59849  17280.00000  0    3539030.192   -3779620.725    4791932.053
10 0 59849  17460.00000  0    2627623.319   -3270356.880    5672157.176
10 0 59849  17640.00000  0    1635857.862   -2617096.620    6344477.580
10 0 59849  17820.00000  0     603383.067   -1842136.469    6784526.368
10 0 59849  18000.00000  0    -429421.056    -973175.649    6976451.380
10 0 59849  18180.00000  0   -1423022.680     -42304.860    6913434.342
10 0 59849  18360.00000  0   -2340238.742     915184.624    6597898.844
10 0 59849  18540.00000  0   -3147612.945    1862132.596    6041408.652
10 0 59849  18720.00000  0   -3816630.167    2760940.817    5264261.149
10 0 59849  18900.00000  0   -4324732.185    3575060.036    4294782.368
10 0 59849  19080.00000  0   -4656098.048    4270479.227    3168331.205
10 0 59849  19260.00000  0   -4802155.821    4817157.466    1926037.002
10 0 59849  19440.00000  0   -4761797.136    5190335.090     613304.725
10 0 59849  19620.00000  0   -4541284.035    5371652.966    -721858.593
10 0 59849  19800.00000  0   -4153851.544    5350026.266   -2030631.552
10 0 59849  19980.00000  0   -3619013.607    5122218.281   -3265204.781
10 0 59849  20160.00000  0   -2961616.143    4693085.495   -4380554.976
10 0 59849  20340.00000  0   -2210690.334    4075484.449   -5336088.615
10 0 59849  20520.00000  0   -1398172.315    3289860.693   -6097091.857
10 0 59849  20700.00000  0    -557549.809    2363542.699   -6635951.385
10 0 59849  20880.00000  0     277508.612    1329767.994   -6933106.745
10 0 59849  21060.00000  0    1074482.947     226488.779   -6977716.476
10 0 59849  21240.00000  0    1803249.779    -905005.389   -6768034.498
10 0 59849  21420.00000  0    2437208.205   -2021609.046   -6311484.478
10 0 59849  21600.00000  0    2954249.506   -3080017.754   -5624435.998
10 0 59849  21780.00000  0    3337545.833   -4038402.099   -4731683.111
99
